[
    {
        "Altitude(m)": 553909.5462947523,
        "Argument of Periapsis(deg)": 0.033114955553567506,
        "Eccentricity": 0.0,
        "Inclination(deg)": 53.0,
        "Latitude(deg)": 21.196254310402495,
        "Longitude(deg)": 167.90779648948694,
        "Mean Anomaly(deg)": 26.821664337887906,
        "RAAN(deg)": 254.9507168426401,
        "Satellite Name": "Starlink Shell 1 1142",
        "Satellite Number": 1142,
        "Semi-Major Axis(m)": 6931778.249405717,
        "Time(s)": 950
    },
    {
        "Altitude(m)": 553954.8676787829,
        "Argument of Periapsis(deg)": 0.03346353403307874,
        "Eccentricity": 0.0,
        "Inclination(deg)": 53.0,
        "Latitude(deg)": 21.677440589824595,
        "Longitude(deg)": 168.3009931600744,
        "Mean Anomaly(deg)": 27.448495541444654,
        "RAAN(deg)": 254.95019807256264,
        "Satellite Name": "Starlink Shell 1 1142",
        "Satellite Number": 1142,
        "Semi-Major Axis(m)": 6931778.249405717,
        "Time(s)": 960
    },
    {
        "Altitude(m)": 554002.1268682855,
        "Argument of Periapsis(deg)": 0.03381211251258998,
        "Eccentricity": 0.0,
        "Inclination(deg)": 53.0,
        "Latitude(deg)": 22.157455797917212,
        "Longitude(deg)": 168.69707878110836,
        "Mean Anomaly(deg)": 28.0753267450013,
        "RAAN(deg)": 254.94967930248515,
        "Satellite Name": "Starlink Shell 1 1142",
        "Satellite Number": 1142,
        "Semi-Major Axis(m)": 6931778.249405717,
        "Time(s)": 970
    },
    {
        "Altitude(m)": 554051.2801073531,
        "Argument of Periapsis(deg)": 0.034160690992101214,
        "Eccentricity": 0.0,
        "Inclination(deg)": 53.0,
        "Latitude(deg)": 22.636263620512985,
        "Longitude(deg)": 169.0961364251376,
        "Mean Anomaly(deg)": 28.702157948557996,
        "RAAN(deg)": 254.94916053240763,
        "Satellite Name": "Starlink Shell 1 1142",
        "Satellite Number": 1142,
        "Semi-Major Axis(m)": 6931778.249405717,
        "Time(s)": 980
    },
    {
        "Altitude(m)": 554102.2828531995,
        "Argument of Periapsis(deg)": 0.034509269471612446,
        "Eccentricity": 0.0,
        "Inclination(deg)": 53.0,
        "Latitude(deg)": 23.11382704239369,
        "Longitude(deg)": 169.49825082910232,
        "Mean Anomaly(deg)": 29.328989152114843,
        "RAAN(deg)": 254.94864176233023,
        "Satellite Name": "Starlink Shell 1 1142",
        "Satellite Number": 1142,
        "Semi-Major Axis(m)": 6931778.249405717,
        "Time(s)": 990
    }
]